NORAD_CAT_ID,OBJECT_NAME,OBJECT_TYPE,EPOCH,MEAN_MOTION,ECCENTRICITY,INCLINATION,RA_OF_ASC_NODE,ARG_OF_PERICENTER,MEAN_ANOMALY,BSTAR,MEAN_MOTION_DOT,MEAN_MOTION_DDOT,TLE_LINE0,TLE_LINE1,TLE_LINE2,SEMIMAJOR_AXIS,PERIOD,APOGEE,PERIGEE,DECAYED
54191.0,STARLINK-4619,PAYLOAD,2023-06-14 09:16:05,15.08840665,0.000121,53.2155,160.4067,84.7822,275.3308,3.8398e-05,3.23e-06,0.0,0 STARLINK-4619,1 54191U 22141AL  23165.38617159  .00000323  00000-0  38398-4 0  9990,2 54191  53.2155 160.4067 0001210  84.7822 275.3308 15.08840665 35360,6917.878,95.438,540.58,538.906,0.0
54191.0,STARLINK-4619,PAYLOAD,2023-06-14 17:13:00,15.08840086,0.0001204,53.2155,158.9199,84.4213,275.6916,3.5958e-05,2.84e-06,0.0,0 STARLINK-4619,1 54191U 22141AL  23165.71737183  .00000284  00000-0  35958-4 0  9992,2 54191  53.2155 158.9199 0001204  84.4213 275.6916 15.08840086 35187,6917.88,95.438,540.578,538.912,0.0
54191.0,STARLINK-4619,PAYLOAD,2023-06-15 09:06:52,15.08840165,0.0001209,53.2156,155.9455,89.4453,270.6677,3.0559e-05,1.99e-06,0.0,0 STARLINK-4619,1 54191U 22141AL  23166.37977174  .00000199  00000-0  30559-4 0  9998,2 54191  53.2156 155.9455 0001209  89.4453 270.6677 15.08840165 35284,6917.88,95.438,540.581,538.909,0.0
54191.0,STARLINK-4619,PAYLOAD,2023-06-16 08:57:39,15.08842256,0.000123,53.2155,151.4851,89.231,270.8824,6.6588e-05,7.72e-06,0.0,0 STARLINK-4619,1 54191U 22141AL  23167.37336977  .00000772  00000-0  66588-4 0  9997,2 54191  53.2155 151.4851 0001230  89.2310 270.8824 15.08842256 35669,6917.873,95.437,540.589,538.888,0.0
54191.0,STARLINK-4619,PAYLOAD,2023-06-17 08:48:24,15.0885842,0.000114,53.2151,147.0253,92.6038,267.5084,0.00019242,2.777e-05,0.0,0 STARLINK-4619,1 54191U 22141AL  23168.36695321  .00002777  00000-0  19242-3 0  9999,2 54191  53.2151 147.0253 0001140  92.6038 267.5084 15.08858420 35815,6917.824,95.436,540.478,538.9,0.0
54191.0,STARLINK-4619,PAYLOAD,2023-06-17 15:09:58,15.08841702,0.0001117,53.2157,145.8343,83.6924,276.4195,0.00011509,1.544e-05,0.0,0 STARLINK-4619,1 54191U 22141AL  23168.63192543  .00001544  00000-0  11509-3 0  9996,2 54191  53.2157 145.8343 0001117  83.6924 276.4195 15.08841702 35856,6917.875,95.437,540.513,538.967,0.0
54191.0,STARLINK-4619,PAYLOAD,2023-06-18 07:03:51,15.08826895,0.0001314,53.2156,142.8672,93.6419,266.4723,-9.5809e-05,-1.812e-05,0.0,0 STARLINK-4619,1 54191U 22141AL  23169.29434617 -.00001812  00000-0 -95809-4 0  9996,2 54191  53.2156 142.8672 0001314  93.6419 266.4723 15.08826895 35959,6917.92,95.438,540.694,538.876,0.0
54191.0,STARLINK-4619,PAYLOAD,2023-06-18 15:00:46,15.08830776,0.0001188,53.2155,141.376,85.2832,274.8296,-5.6626e-05,-1.189e-05,0.0,0 STARLINK-4619,1 54191U 22141AL  23169.62554360 -.00001189  00000-0 -56626-4 0  9992,2 54191  53.2155 141.3760 0001188  85.2832 274.8296 15.08830776 35776,6917.909,95.438,540.595,538.952,0.0
54191.0,STARLINK-4619,PAYLOAD,2023-06-19 08:30:01,15.08840305,0.0001096,53.2159,138.104,80.6705,279.4411,5.1162e-06,-2.06e-06,0.0,0 STARLINK-4619,1 54191U 22141AL  23170.35417861 -.00000206  00000-0  51162-5 0  9997,2 54191  53.2159 138.1040 0001096  80.6705 279.4411 15.08840305 36119,6917.879,95.438,540.503,538.986,0.0
54191.0,STARLINK-4619,PAYLOAD,2023-06-19 14:51:33,15.08845807,0.0001133,53.2159,136.9148,85.8617,274.2504,-5.7725e-05,-1.207e-05,0.0,0 STARLINK-4619,1 54191U 22141AL  23170.61913640 -.00001207  00000-0 -57725-4 0  9995,2 54191  53.2159 136.9148 0001133  85.8617 274.2504 15.08845807 35921,6917.863,95.437,540.511,538.944,0.0
54191.0,STARLINK-4619,PAYLOAD,2023-06-20 06:45:24,15.08839011,0.0001146,53.2158,133.9406,81.9922,278.12,0.00019041,2.744e-05,0.0,0 STARLINK-4619,1 54191U 22141AL  23171.28153674  .00002744  00000-0  19041-3 0  9995,2 54191  53.2158 133.9406 0001146  81.9922 278.1200 15.08839011 36022,6917.883,95.438,540.541,538.956,0.0
54191.0,STARLINK-4619,PAYLOAD,2023-06-20 14:42:20,15.08839819,0.0001049,53.2152,132.4548,88.0579,272.0533,0.00017601,2.514e-05,0.0,0 STARLINK-4619,1 54191U 22141AL  23171.61273755  .00002514  00000-0  17601-3 0  9990,2 54191  53.2152 132.4548 0001049  88.0579 272.0533 15.08839819 36304,6917.881,95.438,540.472,539.02,0.0
54191.0,STARLINK-4619,PAYLOAD,2023-06-20 21:03:53,15.08828907,0.0001073,53.2147,131.2656,92.7081,267.4034,0.00026799,3.979e-05,0.0,0 STARLINK-4619,1 54191U 22141AL  23171.87770268  .00003979  00000-0  26799-3 0  9993,2 54191  53.2147 131.2656 0001073  92.7081 267.4034 15.08828907 36111,6917.914,95.438,540.522,539.037,0.0
54191.0,STARLINK-4619,PAYLOAD,2023-06-21 06:36:11,15.08847582,0.0001098,53.2153,129.4798,95.1849,264.9268,9.948e-05,1.296e-05,0.0,0 STARLINK-4619,1 54191U 22141AL  23172.27513487  .00001296  00000-0  99480-4 0  9994,2 54191  53.2153 129.4798 0001098  95.1849 264.9268 15.08847582 36177,6917.857,95.437,540.482,538.963,0.0
54191.0,STARLINK-4619,PAYLOAD,2023-06-21 14:33:08,15.08835552,0.0001119,53.2156,127.9934,85.8041,274.3079,4.0091e-06,-2.24e-06,0.0,0 STARLINK-4619,1 54191U 22141AL  23172.60634540 -.00000224  00000-0  40091-5 0  9991,2 54191  53.2156 127.9934 0001119  85.8041 274.3079 15.08835552 36459,6917.894,95.438,540.533,538.985,0.0
54191.0,STARLINK-4619,PAYLOAD,2023-06-23 01:31:36,15.08844238,0.0001032,53.2154,121.4506,96.1441,263.9669,0.00011767,1.586e-05,0.0,0 STARLINK-4619,1 54191U 22141AL  23174.06361952  .00001586  00000-0  11767-3 0  9994,2 54191  53.2154 121.4506 0001032  96.1441 263.9669 15.08844238 36678,6917.867,95.437,540.446,539.019,0.0
54191.0,STARLINK-4619,PAYLOAD,2023-06-24 02:57:47,15.08843388,0.000107,53.2155,116.692,93.7929,266.3185,0.00018489,2.656e-05,0.0,0 STARLINK-4619,1 54191U 22141AL  23175.12346300  .00002656  00000-0  18489-3 0  9999,2 54191  53.2155 116.6920 0001070  93.7929 266.3185 15.08843388 36834,6917.87,95.437,540.475,538.995,0.0
54191.0,STARLINK-4619,PAYLOAD,2023-06-25 02:48:34,15.08839492,0.0001027,53.2158,112.2363,89.5413,270.5696,7.7557e-05,9.47e-06,0.0,0 STARLINK-4619,1 54191U 22141AL  23176.11706634  .00000947  00000-0  77557-4 0  9992,2 54191  53.2158 112.2363 0001027  89.5413 270.5696 15.08839492 36984,6917.882,95.438,540.457,539.036,0.0
54191.0,STARLINK-4619,PAYLOAD,2023-06-26 05:50:07,15.08844728,0.000109,53.2163,107.1788,93.4587,266.6529,6.9019e-05,8.11e-06,0.0,0 STARLINK-4619,1 54191U 22141AL  23177.24314362  .00000811  00000-0  69019-4 0  9994,2 54191  53.2163 107.1788 0001090  93.4587 266.6529 15.08844728 37159,6917.866,95.437,540.485,538.977,0.0
54191.0,STARLINK-4619,PAYLOAD,2023-06-26 12:11:40,15.08839681,0.0001011,53.2158,105.9899,93.4631,266.6476,1.1013e-05,-1.12e-06,0.0,0 STARLINK-4619,1 54191U 22141AL  23177.50810825 -.00000112  00000-0  11013-4 0  9994,2 54191  53.2158 105.9899 0001011  93.4631 266.6476 15.08839681 37192,6917.881,95.438,540.446,539.047,0.0
54191.0,STARLINK-4619,PAYLOAD,2023-06-26 20:08:36,15.08833989,0.0001119,53.2161,104.5032,95.954,264.158,1.3077e-05,-8e-07,0.0,0 STARLINK-4619,1 54191U 22141AL  23177.83931486 -.00000080  00000-0  13077-4 0  9993,2 54191  53.2161 104.5032 0001119  95.9540 264.1580 15.08833989 37245,6917.899,95.438,540.538,538.99,0.0
54191.0,STARLINK-4619,PAYLOAD,2023-06-27 04:05:31,15.08840407,0.0001221,53.217,103.015,83.8494,276.2637,0.00010487,1.382e-05,0.0,0 STARLINK-4619,1 54191U 22141AL  23178.17050920  .00001382  00000-0  10487-3 0  9992,2 54191  53.2170 103.0150 0001221  83.8494 276.2637 15.08840407 37293,6917.879,95.438,540.589,538.899,0.0
54191.0,STARLINK-4619,PAYLOAD,2023-06-28 00:45:33,15.08839959,0.0001166,53.2168,99.1494,85.4742,274.6384,2.6571e-05,1.35e-06,0.0,0 STARLINK-4619,1 54191U 22141AL  23179.03163365  .00000135  00000-0  26571-4 0  9993,2 54191  53.2168  99.1494 0001166  85.4742 274.6384 15.08839959 37424,6917.881,95.438,540.552,538.939,0.0
54191.0,STARLINK-4619,PAYLOAD,2023-06-29 03:47:06,15.08840601,0.000117,53.2166,94.094,90.6019,269.5108,6.0392e-05,6.73e-06,0.0,0 STARLINK-4619,1 54191U 22141AL  23180.15771440  .00000673  00000-0  60392-4 0  9993,2 54191  53.2166  94.0940 0001170  90.6019 269.5108 15.08840601 37593,6917.879,95.438,540.553,538.934,0.0
54191.0,STARLINK-4619,PAYLOAD,2023-06-30 11:34:49,15.08837009,0.0001224,53.2156,88.1461,91.3283,268.7849,5.3297e-05,5.6e-06,0.0,0 STARLINK-4619,1 54191U 22141AL  23181.48251533  .00000560  00000-0  53297-4 0  9997,2 54191  53.2156  88.1461 0001224  91.3283 268.7849 15.08837009 37798,6917.89,95.438,540.601,538.908,0.0
54191.0,STARLINK-4619,PAYLOAD,2023-07-01 00:17:54,15.08833919,0.0001179,53.2173,85.7695,84.9532,275.1595,-4.9178e-05,-1.07e-05,0.0,0 STARLINK-4619,1 54191U 22141AL  23182.01244123 -.00001070  00000-0 -49178-4 0  9996,2 54191  53.2173  85.7695 0001179  84.9532 275.1595 15.08833919 37878,6917.899,95.438,540.58,538.948,0.0
54191.0,STARLINK-4619,PAYLOAD,2023-07-01 17:47:09,15.08839151,0.0001132,53.2172,82.497,100.0029,260.1091,-2.8851e-05,-7.47e-06,0.0,0 STARLINK-4619,1 54191U 22141AL  23182.74107800 -.00000747  00000-0 -28851-4 0  9991,2 54191  53.2172  82.4970 0001132 100.0029 260.1091 15.08839151 37988,6917.883,95.438,540.531,538.965,0.0
54191.0,STARLINK-4619,PAYLOAD,2023-07-03 01:34:51,15.08843763,8.96e-05,53.2169,76.5503,78.364,281.7453,0.00017182,2.448e-05,0.0,0 STARLINK-4619,1 54191U 22141AL  23184.06587139  .00002448  00000-0  17182-3 0  9997,2 54191  53.2169  76.5503 0000896  78.3640 281.7453 15.08843763 38180,6917.869,95.437,540.354,539.114,0.0
54191.0,STARLINK-4619,PAYLOAD,2023-07-03 09:31:47,15.08836383,8.32e-05,53.2164,75.0628,79.7483,280.3603,8.0002e-05,9.86e-06,0.0,0 STARLINK-4619,1 54191U 22141AL  23184.39707839  .00000986  00000-0  80002-4 0  9991,2 54191  53.2164  75.0628 0000832  79.7483 280.3603 15.08836383 38235,6917.891,95.438,540.332,539.181,0.0
54191.0,STARLINK-4619,PAYLOAD,2023-07-03 17:28:43,15.0883194,0.0001004,53.2178,73.5778,88.3553,271.7554,-4.2408e-07,-2.94e-06,0.0,0 STARLINK-4619,1 54191U 22141AL  23184.72828496 -.00000294  00000-0 -42408-6 0  9995,2 54191  53.2178  73.5778 0001004  88.3553 271.7554 15.08831940 38283,6917.905,95.438,540.465,539.075,0.0
